{"fetched_at":"2026-03-30T13:17:50Z","count":15418,"tles":[{"name":"STARLINK-36801","line1":"1 67888U 26035K   26087.79206865  .00150625  00000+0  99071-3 0  9996","line2":"2 67888  97.2861  21.1797 0001674  85.8081 274.3376 15.75243400  6859","category":"Starlink"}]}